{
  "type": "FeatureCollection",
  "features": [
    {
      "type": "Feature",
      "properties": {
        "norad_id": 26766,
        "name": "INTELSAT 10 (IS-10)",
        "group": "intelsat",
        "lat": -5.424582973254194,
        "lon": 22.32511949401843,
        "alt_km": 36130.83001882536,
        "timestamp": "2025-12-07T09:35:09.459464+00:00",
        "meta_object_name": "INTELSAT 10 (IS-10)",
        "meta_object_id": "2001-019A",
        "meta_epoch": "2025-12-06T11:29:51.700704",
        "meta_mean_motion": 0.99078798,
        "meta_eccentricity": 0.00078511,
        "meta_inclination": 8.6144,
        "meta_ra_of_asc_node": 61.2183,
        "meta_arg_of_pericenter": 220.2225,
        "meta_mean_anomaly": 132.1998,
        "meta_ephemeris_type": 0,
        "meta_classification_type": "U",
        "meta_norad_cat_id": 26766,
        "meta_element_set_no": 999,
        "meta_rev_at_epoch": 4366,
        "meta_bstar": 0,
        "meta_mean_motion_dot": -2.37e-06,
        "meta_mean_motion_ddot": 0,
        "tle_line1": "1 26766U 01019A   25340.47907061 -.00000237  00000+0  00000+0 0  9997",
        "tle_line2": "2 26766   8.6144  61.2183 0007851 220.2225 132.1998  0.99078798 43668"
      },
      "geometry": {
        "type": "Point",
        "coordinates": [
          22.32511949401843,
          -5.424582973254194
        ]
      }
    },
    {
      "type": "Feature",
      "properties": {
        "norad_id": 26900,
        "name": "INTELSAT 902 (IS-902)",
        "group": "intelsat",
        "lat": 5.603425879039058,
        "lon": 170.0306757826055,
        "alt_km": 35783.04219443318,
        "timestamp": "2025-12-07T09:35:09.459489+00:00",
        "meta_object_name": "INTELSAT 902 (IS-902)",
        "meta_object_id": "2001-039A",
        "meta_epoch": "2025-12-01T16:59:59.311968",
        "meta_mean_motion": 1.00270327,
        "meta_eccentricity": 0.00043097,
        "meta_inclination": 5.6187,
        "meta_ra_of_asc_node": 74.2002,
        "meta_arg_of_pericenter": 175.119,
        "meta_mean_anomaly": 26.3816,
        "meta_ephemeris_type": 0,
        "meta_classification_type": "U",
        "meta_norad_cat_id": 26900,
        "meta_element_set_no": 999,
        "meta_rev_at_epoch": 8871,
        "meta_bstar": 0,
        "meta_mean_motion_dot": -2.63e-06,
        "meta_mean_motion_ddot": 0,
        "tle_line1": "1 26900U 01039A   25335.70832537 -.00000263  00000+0  00000+0 0  9993",
        "tle_line2": "2 26900   5.6187  74.2002 0004309 175.1190  26.3816  1.00270327 88713"
      },
      "geometry": {
        "type": "Point",
        "coordinates": [
          170.0306757826055,
          5.603425879039058
        ]
      }
    },
    {
      "type": "Feature",
      "properties": {
        "norad_id": 27380,
        "name": "INTELSAT 904 (IS-904)",
        "group": "intelsat",
        "lat": 5.720922376957477,
        "lon": -171.18431084875928,
        "alt_km": 35786.716045479676,
        "timestamp": "2025-12-07T09:35:09.459505+00:00",
        "meta_object_name": "INTELSAT 904 (IS-904)",
        "meta_object_id": "2002-007A",
        "meta_epoch": "2025-12-06T15:13:38.753184",
        "meta_mean_motion": 1.00268702,
        "meta_eccentricity": 0.00017327,
        "meta_inclination": 6.4392,
        "meta_ra_of_asc_node": 71.5011,
        "meta_arg_of_pericenter": 210.8752,
        "meta_mean_anomaly": 350.186,
        "meta_ephemeris_type": 0,
        "meta_classification_type": "U",
        "meta_norad_cat_id": 27380,
        "meta_element_set_no": 999,
        "meta_rev_at_epoch": 4983,
        "meta_bstar": 0,
        "meta_mean_motion_dot": -2.23e-06,
        "meta_mean_motion_ddot": 0,
        "tle_line1": "1 27380U 02007A   25340.63447631 -.00000223  00000+0  00000+0 0  9993",
        "tle_line2": "2 27380   6.4392  71.5011 0001732 210.8752 350.1860  1.00268702 49832"
      },
      "geometry": {
        "type": "Point",
        "coordinates": [
          -171.18431084875928,
          5.720922376957477
        ]
      }
    },
    {
      "type": "Feature",
      "properties": {
        "norad_id": 27426,
        "name": "DIRECTV 5 (TEMPO 1)",
        "group": "intelsat",
        "lat": 2.3679981372207535,
        "lon": 109.99983935386902,
        "alt_km": 35801.6934878031,
        "timestamp": "2025-12-07T09:35:09.459519+00:00",
        "meta_object_name": "DIRECTV 5 (TEMPO 1)",
        "meta_object_id": "2002-023A",
        "meta_epoch": "2025-12-06T21:42:10.499616",
        "meta_mean_motion": 1.00271569,
        "meta_eccentricity": 0.00039091,
        "meta_inclination": 4.3867,
        "meta_ra_of_asc_node": 77.7199,
        "meta_arg_of_pericenter": 195.8774,
        "meta_mean_anomaly": 17.7615,
        "meta_ephemeris_type": 0,
        "meta_classification_type": "U",
        "meta_norad_cat_id": 27426,
        "meta_element_set_no": 999,
        "meta_rev_at_epoch": 8619,
        "meta_bstar": 0,
        "meta_mean_motion_dot": -5.3e-07,
        "meta_mean_motion_ddot": 0,
        "tle_line1": "1 27426U 02023A   25340.90428819 -.00000053  00000+0  00000+0 0  9990",
        "tle_line2": "2 27426   4.3867  77.7199 0003909 195.8774  17.7615  1.00271569 86195"
      },
      "geometry": {
        "type": "Point",
        "coordinates": [
          109.99983935386902,
          2.3679981372207535
        ]
      }
    },
    {
      "type": "Feature",
      "properties": {
        "norad_id": 27438,
        "name": "INTELSAT 905 (IS-905)",
        "group": "intelsat",
        "lat": 1.2127347081419482,
        "lon": 82.99748509881137,
        "alt_km": 35798.35348102169,
        "timestamp": "2025-12-07T09:35:09.459531+00:00",
        "meta_object_name": "INTELSAT 905 (IS-905)",
        "meta_object_id": "2002-027A",
        "meta_epoch": "2025-12-03T09:40:44.149728",
        "meta_mean_motion": 1.00273288,
        "meta_eccentricity": 0.00031296,
        "meta_inclination": 6.2606,
        "meta_ra_of_asc_node": 72.1621,
        "meta_arg_of_pericenter": 189.1417,
        "meta_mean_anomaly": 179.1858,
        "meta_ephemeris_type": 0,
        "meta_classification_type": "U",
        "meta_norad_cat_id": 27438,
        "meta_element_set_no": 999,
        "meta_rev_at_epoch": 4940,
        "meta_bstar": 0,
        "meta_mean_motion_dot": 1.09e-06,
        "meta_mean_motion_ddot": 0,
        "tle_line1": "1 27438U 02027A   25337.40328877  .00000109  00000+0  00000+0 0  9992",
        "tle_line2": "2 27438   6.2606  72.1621 0003129 189.1417 179.1858  1.00273288 49408"
      },
      "geometry": {
        "type": "Point",
        "coordinates": [
          82.99748509881137,
          1.2127347081419482
        ]
      }
    },
    {
      "type": "Feature",
      "properties": {
        "norad_id": 27445,
        "name": "GALAXY 3C (G-3C)",
        "group": "intelsat",
        "lat": 2.304809990621063,
        "lon": 125.28778683768446,
        "alt_km": 35783.41490865214,
        "timestamp": "2025-12-07T09:35:09.459544+00:00",
        "meta_object_name": "GALAXY 3C (G-3C)",
        "meta_object_id": "2002-030A",
        "meta_epoch": "2025-12-06T21:46:25.093632",
        "meta_mean_motion": 1.0027055,
        "meta_eccentricity": 0.00011918,
        "meta_inclination": 3.2492,
        "meta_ra_of_asc_node": 80.5629,
        "meta_arg_of_pericenter": 101.458,
        "meta_mean_anomaly": 125.6606,
        "meta_ephemeris_type": 0,
        "meta_classification_type": "U",
        "meta_norad_cat_id": 27445,
        "meta_element_set_no": 999,
        "meta_rev_at_epoch": 4456,
        "meta_bstar": 0,
        "meta_mean_motion_dot": -1.48e-06,
        "meta_mean_motion_ddot": 0,
        "tle_line1": "1 27445U 02030A   25340.90723488 -.00000148  00000+0  00000+0 0  9994",
        "tle_line2": "2 27445   3.2492  80.5629 0001191 101.4580 125.6606  1.00270550 44560"
      },
      "geometry": {
        "type": "Point",
        "coordinates": [
          125.28778683768446,
          2.304809990621063
        ]
      }
    },
    {
      "type": "Feature",
      "properties": {
        "norad_id": 27513,
        "name": "INTELSAT 906 (IS-906)",
        "group": "intelsat",
        "lat": -2.6029627095794132,
        "lon": -75.7286909437187,
        "alt_km": 35762.80090849765,
        "timestamp": "2025-12-07T09:35:09.459556+00:00",
        "meta_object_name": "INTELSAT 906 (IS-906)",
        "meta_object_id": "2002-041A",
        "meta_epoch": "2025-12-06T20:20:14.722368",
        "meta_mean_motion": 1.00270481,
        "meta_eccentricity": 0.0006059,
        "meta_inclination": 5.3139,
        "meta_ra_of_asc_node": 75.3017,
        "meta_arg_of_pericenter": 188.0841,
        "meta_mean_anomaly": 181.6952,
        "meta_ephemeris_type": 0,
        "meta_classification_type": "U",
        "meta_norad_cat_id": 27513,
        "meta_element_set_no": 999,
        "meta_rev_at_epoch": 8510,
        "meta_bstar": 0,
        "meta_mean_motion_dot": 1.6e-07,
        "meta_mean_motion_ddot": 0,
        "tle_line1": "1 27513U 02041A   25340.84739262  .00000016  00000+0  00000+0 0  9995",
        "tle_line2": "2 27513   5.3139  75.3017 0006059 188.0841 181.6952  1.00270481 85103"
      },
      "geometry": {
        "type": "Point",
        "coordinates": [
          -75.7286909437187,
          -2.6029627095794132
        ]
      }
    }
  ]
}